[{"OBJECT_NAME":"STARLINK-35344","OBJECT_ID":"2025-211E","EPOCH":"2026-03-09T17:12:04.491360","MEAN_MOTION":15.05640282,"ECCENTRICITY":9.225e-5,"INCLINATION":97.603,"RA_OF_ASC_NODE":114.0558,"ARG_OF_PERICENTER":101.1467,"MEAN_ANOMALY":258.9864,"EPHEMERIS_TYPE":0,"CLASSIFICATION_TYPE":"U","NORAD_CAT_ID":65656,"ELEMENT_SET_NO":999,"REV_AT_EPOCH":2704,"BSTAR":0.00013428472,"MEAN_MOTION_DOT":1.877e-5,"MEAN_MOTION_DDOT":0},{"OBJECT_NAME":"NOAA 16 DEB","OBJECT_ID":"2000-055NX","EPOCH":"2026-03-08T23:11:13.556832","MEAN_MOTION":15.01016664,"ECCENTRICITY":0.00157984,"INCLINATION":98.8636,"RA_OF_ASC_NODE":259.6913,"ARG_OF_PERICENTER":295.8562,"MEAN_ANOMALY":64.1029,"EPHEMERIS_TYPE":0,"CLASSIFICATION_TYPE":"U","NORAD_CAT_ID":41658,"ELEMENT_SET_NO":999,"REV_AT_EPOCH":9741,"BSTAR":0.010110988,"MEAN_MOTION_DOT":0.00131742,"MEAN_MOTION_DDOT":0}]
